{
  "links" : {
    "next" : "https://api.nasa.gov/neo/rest/v1/feed?start_date=1995-12-09&end_date=1995-12-09&detailed=true&api_key=t0TVs3DtDT2H8Oy2Zy8m2eVrNsAVKAexjcZXUckd",
    "prev" : "https://api.nasa.gov/neo/rest/v1/feed?start_date=1995-12-07&end_date=1995-12-07&detailed=true&api_key=t0TVs3DtDT2H8Oy2Zy8m2eVrNsAVKAexjcZXUckd",
    "self" : "https://api.nasa.gov/neo/rest/v1/feed?start_date=1995-12-08&end_date=1995-12-08&detailed=true&api_key=t0TVs3DtDT2H8Oy2Zy8m2eVrNsAVKAexjcZXUckd"
  },
  "element_count" : 5,
  "near_earth_objects" : {
    "1995-12-08" : [ {
      "links" : {
        "self" : "https://api.nasa.gov/neo/rest/v1/neo/3710226?api_key=t0TVs3DtDT2H8Oy2Zy8m2eVrNsAVKAexjcZXUckd"
      },
      "neo_reference_id" : "3710226",
      "name" : "(2015 CT13)",
      "nasa_jpl_url" : "http://ssd.jpl.nasa.gov/sbdb.cgi?sstr=3710226",
      "absolute_magnitude_h" : 26.0,
      "estimated_diameter" : {
        "kilometers" : {
          "estimated_diameter_min" : 0.0167708462,
          "estimated_diameter_max" : 0.0375007522
        },
        "meters" : {
          "estimated_diameter_min" : 16.7708462163,
          "estimated_diameter_max" : 37.5007521798
        },
        "miles" : {
          "estimated_diameter_min" : 0.0104209175,
          "estimated_diameter_max" : 0.0233018799
        },
        "feet" : {
          "estimated_diameter_min" : 55.0224631002,
          "estimated_diameter_max" : 123.0339677816
        }
      },
      "is_potentially_hazardous_asteroid" : false,
      "close_approach_data" : [ {
        "close_approach_date" : "1995-12-08",
        "epoch_date_close_approach" : 818409600000,
        "relative_velocity" : {
          "kilometers_per_second" : "8.4548375526",
          "kilometers_per_hour" : "30437.4151891801",
          "miles_per_hour" : "18912.6261212991"
        },
        "miss_distance" : {
          "astronomical" : "0.1687031221",
          "lunar" : "65.6255187988",
          "kilometers" : "25237628",
          "miles" : "15681935"
        },
        "orbiting_body" : "Earth"
      } ],
      "orbital_data" : {
        "orbit_id" : "14",
        "orbit_determination_date" : "2017-04-06 08:35:40",
        "orbit_uncertainty" : "6",
        "minimum_orbit_intersection" : ".00283925",
        "jupiter_tisserand_invariant" : "4.839",
        "epoch_osculation" : "2458000.5",
        "eccentricity" : ".2847180788702687",
        "semi_major_axis" : "1.343136859962097",
        "inclination" : "7.992793446302053",
        "ascending_node_longitude" : "143.3850095152952",
        "orbital_period" : "568.5633069100641",
        "perihelion_distance" : ".9607215135338433",
        "perihelion_argument" : "330.4917718446133",
        "aphelion_distance" : "1.72555220639035",
        "perihelion_time" : "2458177.546232421274",
        "mean_anomaly" : "247.898774161062",
        "mean_motion" : ".633174873623959",
        "equinox" : "J2000"
      }
    }, {
      "links" : {
        "self" : "https://api.nasa.gov/neo/rest/v1/neo/3739251?api_key=t0TVs3DtDT2H8Oy2Zy8m2eVrNsAVKAexjcZXUckd"
      },
      "neo_reference_id" : "3739251",
      "name" : "(2016 AA9)",
      "nasa_jpl_url" : "http://ssd.jpl.nasa.gov/sbdb.cgi?sstr=3739251",
      "absolute_magnitude_h" : 19.1,
      "estimated_diameter" : {
        "kilometers" : {
          "estimated_diameter_min" : 0.4023045798,
          "estimated_diameter_max" : 0.8995803882
        },
        "meters" : {
          "estimated_diameter_min" : 402.3045798343,
          "estimated_diameter_max" : 899.5803881691
        },
        "miles" : {
          "estimated_diameter_min" : 0.2499803991,
          "estimated_diameter_max" : 0.5589731654
        },
        "feet" : {
          "estimated_diameter_min" : 1319.8969577037,
          "estimated_diameter_max" : 2951.3793207207
        }
      },
      "is_potentially_hazardous_asteroid" : false,
      "close_approach_data" : [ {
        "close_approach_date" : "1995-12-08",
        "epoch_date_close_approach" : 818409600000,
        "relative_velocity" : {
          "kilometers_per_second" : "4.5544349416",
          "kilometers_per_hour" : "16395.96578993",
          "miles_per_hour" : "10187.8155209706"
        },
        "miss_distance" : {
          "astronomical" : "0.4287494697",
          "lunar" : "166.7835388184",
          "kilometers" : "64140008",
          "miles" : "39854752"
        },
        "orbiting_body" : "Earth"
      } ],
      "orbital_data" : {
        "orbit_id" : "39",
        "orbit_determination_date" : "2017-09-26 06:50:14",
        "orbit_uncertainty" : "0",
        "minimum_orbit_intersection" : ".316229",
        "jupiter_tisserand_invariant" : "4.166",
        "epoch_osculation" : "2458000.5",
        "eccentricity" : ".242855734811707",
        "semi_major_axis" : "1.697239040890702",
        "inclination" : "7.010867579518946",
        "ascending_node_longitude" : "275.0626715050584",
        "orbital_period" : "807.6309368412647",
        "perihelion_distance" : "1.285054806464074",
        "perihelion_argument" : "115.4724427722845",
        "aphelion_distance" : "2.10942327531733",
        "perihelion_time" : "2458063.839273704558",
        "mean_anomaly" : "331.7666356085584",
        "mean_motion" : ".4457481549778176",
        "equinox" : "J2000"
      }
    } ]
  }
}